{
  "type": "FeatureCollection",
  "features": [
    {
      "type": "Feature",
      "properties": {
        "norad_id": 37530,
        "name": "COSMOS 2251 DEB",
        "group": "cosmos-2251-debris",
        "lat": -7.594797821956419,
        "lon": 164.62057512587575,
        "alt_km": 794.5107443584957,
        "timestamp": "2025-12-07T22:37:43.479918+00:00",
        "meta_object_name": "COSMOS 2251 DEB",
        "meta_object_id": "1993-036BNK",
        "meta_epoch": "2025-11-30T19:50:14.646624",
        "meta_mean_motion": 14.34478642,
        "meta_eccentricity": 0.00255427,
        "meta_inclination": 74.0356,
        "meta_ra_of_asc_node": 355.4602,
        "meta_arg_of_pericenter": 61.4891,
        "meta_mean_anomaly": 111.2815,
        "meta_ephemeris_type": 0,
        "meta_classification_type": "U",
        "meta_norad_cat_id": 37530,
        "meta_element_set_no": 999,
        "meta_rev_at_epoch": 85061,
        "meta_bstar": 0.00021143929,
        "meta_mean_motion_dot": 5.72e-06,
        "meta_mean_motion_ddot": 0,
        "tle_line1": "1 37530U 93036BNK 25334.82655841  .00000572  00000+0  21144-3 0  9993",
        "tle_line2": "2 37530  74.0356 355.4602 0025542  61.4891 111.2815 14.34478642850619"
      },
      "geometry": {
        "type": "Point",
        "coordinates": [
          164.62057512587575,
          -7.594797821956419
        ]
      }
    },
    {
      "type": "Feature",
      "properties": {
        "norad_id": 37532,
        "name": "COSMOS 2251 DEB",
        "group": "cosmos-2251-debris",
        "lat": -11.05684991035742,
        "lon": 47.813730389860204,
        "alt_km": 762.3879118271416,
        "timestamp": "2025-12-07T22:37:43.479929+00:00",
        "meta_object_name": "COSMOS 2251 DEB",
        "meta_object_id": "1993-036BNM",
        "meta_epoch": "2025-12-06T22:29:48.865632",
        "meta_mean_motion": 14.42393869,
        "meta_eccentricity": 0.0015812,
        "meta_inclination": 74.0505,
        "meta_ra_of_asc_node": 226.4729,
        "meta_arg_of_pericenter": 327.7408,
        "meta_mean_anomaly": 44.7471,
        "meta_ephemeris_type": 0,
        "meta_classification_type": "U",
        "meta_norad_cat_id": 37532,
        "meta_element_set_no": 999,
        "meta_rev_at_epoch": 84832,
        "meta_bstar": 0.00040433426,
        "meta_mean_motion_dot": 1.313e-05,
        "meta_mean_motion_ddot": 0,
        "tle_line1": "1 37532U 93036BNM 25340.93737113  .00001313  00000+0  40433-3 0  9993",
        "tle_line2": "2 37532  74.0505 226.4729 0015812 327.7408  44.7471 14.42393869848324"
      },
      "geometry": {
        "type": "Point",
        "coordinates": [
          47.813730389860204,
          -11.05684991035742
        ]
      }
    },
    {
      "type": "Feature",
      "properties": {
        "norad_id": 37533,
        "name": "COSMOS 2251 DEB",
        "group": "cosmos-2251-debris",
        "lat": 73.3403440594493,
        "lon": -87.09818164013043,
        "alt_km": 958.2355604699414,
        "timestamp": "2025-12-07T22:37:43.479939+00:00",
        "meta_object_name": "COSMOS 2251 DEB",
        "meta_object_id": "1993-036BNN",
        "meta_epoch": "2025-12-06T08:48:45.576288",
        "meta_mean_motion": 14.12120184,
        "meta_eccentricity": 0.0158299,
        "meta_inclination": 74.0693,
        "meta_ra_of_asc_node": 203.0372,
        "meta_arg_of_pericenter": 261.0983,
        "meta_mean_anomaly": 97.2209,
        "meta_ephemeris_type": 0,
        "meta_classification_type": "U",
        "meta_norad_cat_id": 37533,
        "meta_element_set_no": 999,
        "meta_rev_at_epoch": 62831,
        "meta_bstar": 0.0023004993,
        "meta_mean_motion_dot": 4.727e-05,
        "meta_mean_motion_ddot": 0,
        "tle_line1": "1 37533U 93036BNN 25340.36719417  .00004727  00000+0  23005-2 0  9995",
        "tle_line2": "2 37533  74.0693 203.0372 0158299 261.0983  97.2209 14.12120184628315"
      },
      "geometry": {
        "type": "Point",
        "coordinates": [
          -87.09818164013043,
          73.3403440594493
        ]
      }
    },
    {
      "type": "Feature",
      "properties": {
        "norad_id": 37535,
        "name": "COSMOS 2251 DEB",
        "group": "cosmos-2251-debris",
        "lat": -65.37255992067394,
        "lon": 43.96343136776196,
        "alt_km": 697.3915020494414,
        "timestamp": "2025-12-07T22:37:43.479950+00:00",
        "meta_object_name": "COSMOS 2251 DEB",
        "meta_object_id": "1993-036BNQ",
        "meta_epoch": "2025-12-06T17:53:41.072064",
        "meta_mean_motion": 14.58386464,
        "meta_eccentricity": 0.00280664,
        "meta_inclination": 74.0246,
        "meta_ra_of_asc_node": 84.9186,
        "meta_arg_of_pericenter": 224.6272,
        "meta_mean_anomaly": 260.8539,
        "meta_ephemeris_type": 0,
        "meta_classification_type": "U",
        "meta_norad_cat_id": 37535,
        "meta_element_set_no": 999,
        "meta_rev_at_epoch": 85237,
        "meta_bstar": 0.0015242667,
        "meta_mean_motion_dot": 7.078e-05,
        "meta_mean_motion_ddot": 0,
        "tle_line1": "1 37535U 93036BNQ 25340.74561426  .00007078  00000+0  15243-2 0  9991",
        "tle_line2": "2 37535  74.0246  84.9186 0028066 224.6272 260.8539 14.58386464852378"
      },
      "geometry": {
        "type": "Point",
        "coordinates": [
          43.96343136776196,
          -65.37255992067394
        ]
      }
    },
    {
      "type": "Feature",
      "properties": {
        "norad_id": 37537,
        "name": "COSMOS 2251 DEB",
        "group": "cosmos-2251-debris",
        "lat": 55.05011533704807,
        "lon": 69.75062345814769,
        "alt_km": 746.4807119251009,
        "timestamp": "2025-12-07T22:37:43.479960+00:00",
        "meta_object_name": "COSMOS 2251 DEB",
        "meta_object_id": "1993-036BNS",
        "meta_epoch": "2025-12-04T13:53:52.711584",
        "meta_mean_motion": 14.3747249,
        "meta_eccentricity": 0.0050092,
        "meta_inclination": 74.012,
        "meta_ra_of_asc_node": 280.1661,
        "meta_arg_of_pericenter": 62.5345,
        "meta_mean_anomaly": 298.0888,
        "meta_ephemeris_type": 0,
        "meta_classification_type": "U",
        "meta_norad_cat_id": 37537,
        "meta_element_set_no": 999,
        "meta_rev_at_epoch": 84916,
        "meta_bstar": 0.00043114,
        "meta_mean_motion_dot": 1.283e-05,
        "meta_mean_motion_ddot": 0,
        "tle_line1": "1 37537U 93036BNS 25338.57908231  .00001283  00000+0  43114-3 0  9991",
        "tle_line2": "2 37537  74.0120 280.1661 0050092  62.5345 298.0888 14.37472490849168"
      },
      "geometry": {
        "type": "Point",
        "coordinates": [
          69.75062345814769,
          55.05011533704807
        ]
      }
    },
    {
      "type": "Feature",
      "properties": {
        "norad_id": 37546,
        "name": "COSMOS 2251 DEB",
        "group": "cosmos-2251-debris",
        "lat": 0.19429256138261927,
        "lon": -72.58932322284454,
        "alt_km": 628.5501642836571,
        "timestamp": "2025-12-07T22:37:43.479971+00:00",
        "meta_object_name": "COSMOS 2251 DEB",
        "meta_object_id": "1993-036BPB",
        "meta_epoch": "2025-12-07T02:21:17.919648",
        "meta_mean_motion": 14.80155071,
        "meta_eccentricity": 0.00062314,
        "meta_inclination": 74.021,
        "meta_ra_of_asc_node": 109.1315,
        "meta_arg_of_pericenter": 130.3601,
        "meta_mean_anomaly": 229.812,
        "meta_ephemeris_type": 0,
        "meta_classification_type": "U",
        "meta_norad_cat_id": 37546,
        "meta_element_set_no": 999,
        "meta_rev_at_epoch": 65804,
        "meta_bstar": 0.0044829614,
        "meta_mean_motion_dot": 0.00034195,
        "meta_mean_motion_ddot": 0,
        "tle_line1": "1 37546U 93036BPB 25341.09812407  .00034195  00000+0  44830-2 0  9994",
        "tle_line2": "2 37546  74.0210 109.1315 0006231 130.3601 229.8120 14.80155071658046"
      },
      "geometry": {
        "type": "Point",
        "coordinates": [
          -72.58932322284454,
          0.19429256138261927
        ]
      }
    },
    {
      "type": "Feature",
      "properties": {
        "norad_id": 37959,
        "name": "COSMOS 2251 DEB",
        "group": "cosmos-2251-debris",
        "lat": 35.57611954758631,
        "lon": 77.92042085697514,
        "alt_km": 737.4054041365389,
        "timestamp": "2025-12-07T22:37:43.479981+00:00",
        "meta_object_name": "COSMOS 2251 DEB",
        "meta_object_id": "1993-036BPJ",
        "meta_epoch": "2025-12-07T00:13:24.081600",
        "meta_mean_motion": 14.58083462,
        "meta_eccentricity": 0.0058212,
        "meta_inclination": 74.0118,
        "meta_ra_of_asc_node": 67.8639,
        "meta_arg_of_pericenter": 211.7852,
        "meta_mean_anomaly": 327.2843,
        "meta_ephemeris_type": 0,
        "meta_classification_type": "U",
        "meta_norad_cat_id": 37959,
        "meta_element_set_no": 999,
        "meta_rev_at_epoch": 80043,
        "meta_bstar": 0.00129748,
        "meta_mean_motion_dot": 6.088e-05,
        "meta_mean_motion_ddot": 0,
        "tle_line1": "1 37959U 93036BPJ 25341.00930650  .00006088  00000+0  12975-2 0  9999",
        "tle_line2": "2 37959  74.0118  67.8639 0058212 211.7852 327.2843 14.58083462800434"
      },
      "geometry": {
        "type": "Point",
        "coordinates": [
          77.92042085697514,
          35.57611954758631
        ]
      }
    }
  ]
}